KUIPER-00044            
1 64505U 25134F   25285.11700339  .00006600  00000+0  89251-3 0  9990
2 64505  51.8978 183.5821 0013528 138.6459 221.5530 14.79953654 17888
KUIPER-00046            
1 64506U 25134G   25284.98074220  .00005737  00000+0  78748-3 0  9997
2 64506  51.9008 180.6016 0012613 148.7843 211.3871 14.79541387 17916
KUIPER-00047            
1 64507U 25134H   25285.33335648 -.00017215  00000+0 -75697-3 0  9998
2 64507  51.8677 157.6380 0010653 161.6193  99.8054 15.20769820  5864
KUIPER-00048            
1 64508U 25134J   25285.33335648 -.00189591  00000+0 -85904-2 0  9997
2 64508  51.8824 156.3083 0004607 188.5053 118.9825 15.21190459  4067
KUIPER-00049            
1 64509U 25134K   25285.33335648 -.00051610  00000+0 -65988-2 0  9998
2 64509  51.8983 165.0831 0003855 121.9467 206.4509 14.81137957  5620
KUIPER-00050            
1 64510U 25134L   25285.05651121  .00008046  00000+0  73776-3 0  9994
2 64510  51.8897 166.8488 0005735 169.2240 190.8853 14.95657429 18118
KUIPER-00051            
1 64511U 25134M   25285.33335648 -.00230264  00000+0 -25508-1 0  9998
2 64511  51.9055 162.8526 0004261 144.5761  71.8711 14.88228934  4384
KUIPER-00052            
1 64512U 25134N   25285.04903359  .00585700  00000+0  64732-2 0  9996
2 64512  51.8701 146.1361 0007880 167.1282 192.9917 15.60537822 18392
